STARLINK-36637          
1 67633U 26020S   26049.02697038  .00264768  00000+0  15736-2 0  9997
2 67633  42.9972 261.5985 0001943 270.3809  89.6838 15.76438526  2980
STARLINK-36617          
1 67634U 26020T   26049.06376080  .00292496  00000+0  13398-2 0  9994
2 67634  42.9975 260.9982 0001964 262.8453  97.2196 15.82101399  2993
STARLINK-36627          
1 67635U 26020U   26048.95704727  .00379458  00000+0  22253-2 0  9999
2 67635  42.9966 261.9306 0001778 275.3532  84.7135 15.76418041  2975
STARLINK-36624          
1 67636U 26020V   26049.25002315  .00020007  00000+0  12555-3 0  9996
2 67636  42.9994 259.8694 0001804 283.9877  52.6958 15.76368748  4269
STARLINK-36610          
1 67637U 26020W   26048.95923631  .00385039  00000+0  22548-2 0  9997
2 67637  42.9970 261.9484 0001662 267.0936  92.9744 15.76435465  2973
STARLINK-36599          
1 67638U 26020X   26048.99647698  .00577946  00000+0  25129-2 0  9996
2 67638  42.9962 261.3502 0004262 253.9004 106.1399 15.82481964  2986
STARLINK-36595          
1 67639U 26020Y   26049.05895204  .00633868  00000+0  27793-2 0  9998
2 67639  42.9957 260.9582 0006922 302.3713  57.6488 15.82149842  2991
STARLINK-36570          
1 67640U 26020Z   26048.63586041  .00458538  00000+0  26443-2 0  9999
2 67640  42.9967 263.8200 0002492 270.1840  89.8744 15.76579799  2920
STARLINK-36514          
1 67641U 26020AA  26047.98325419  .00104594  00000+0  49143-3 0  9990
2 67641  42.9960 267.5163 0001841 261.8111  98.2552 15.82095372  2825
STARLINK-36556          
1 67642U 26020AB  26049.25002315  .00014069  00000+0  89246-4 0  9996
2 67642  42.9983 259.9304 0001849 266.3849  45.4400 15.76365592  4262
STARLINK-36533          
1 67643U 26020AC  26048.95485381  .00470696  00000+0  26904-2 0  9993
2 67643  42.9964 261.9120 0003773 280.6242  79.4203 15.76745950  2979
STARLINK-36623          
1 67644U 26020AD  26048.94828826  .00386134  00000+0  22612-2 0  9993
2 67644  42.9971 261.8562 0001705 299.5909  60.4791 15.76432828  2978
