CCSDS_OMM_VERS = 2.0
CREATION_DATE  = 
ORIGINATOR     = 

OBJECT_NAME    = STARLINK-36637
OBJECT_ID      = 2026-020S
CENTER_NAME    = EARTH
REF_FRAME      = TEME
TIME_SYSTEM    = UTC
MEAN_ELEMENT_THEORY = SGP/SGP4

EPOCH          = 2026-02-18T00:38:50.240832
MEAN_MOTION    = 15.76438526
ECCENTRICITY   = .00019432
INCLINATION    = 42.9972
RA_OF_ASC_NODE = 261.5985
ARG_OF_PERICENTER = 270.3809
MEAN_ANOMALY   = 89.6838

EPHEMERIS_TYPE = 0
CLASSIFICATION_TYPE = U
NORAD_CAT_ID   = 67633
ELEMENT_SET_NO = 999
REV_AT_EPOCH   = 298
BSTAR          = .15735872E-2
MEAN_MOTION_DOT = .264768E-2
MEAN_MOTION_DDOT = 0

CCSDS_OMM_VERS = 2.0
CREATION_DATE  = 
ORIGINATOR     = 

OBJECT_NAME    = STARLINK-36617
OBJECT_ID      = 2026-020T
CENTER_NAME    = EARTH
REF_FRAME      = TEME
TIME_SYSTEM    = UTC
MEAN_ELEMENT_THEORY = SGP/SGP4

EPOCH          = 2026-02-18T01:31:48.933120
MEAN_MOTION    = 15.82101399
ECCENTRICITY   = .00019646
INCLINATION    = 42.9975
RA_OF_ASC_NODE = 260.9982
ARG_OF_PERICENTER = 262.8453
MEAN_ANOMALY   = 97.2196

EPHEMERIS_TYPE = 0
CLASSIFICATION_TYPE = U
NORAD_CAT_ID   = 67634
ELEMENT_SET_NO = 999
REV_AT_EPOCH   = 299
BSTAR          = .13398349E-2
MEAN_MOTION_DOT = .292496E-2
MEAN_MOTION_DDOT = 0

CCSDS_OMM_VERS = 2.0
CREATION_DATE  = 
ORIGINATOR     = 

OBJECT_NAME    = STARLINK-36627
OBJECT_ID      = 2026-020U
CENTER_NAME    = EARTH
REF_FRAME      = TEME
TIME_SYSTEM    = UTC
MEAN_ELEMENT_THEORY = SGP/SGP4

EPOCH          = 2026-02-17T22:58:08.884128
MEAN_MOTION    = 15.76418041
ECCENTRICITY   = .0001778
INCLINATION    = 42.9966
RA_OF_ASC_NODE = 261.9306
ARG_OF_PERICENTER = 275.3532
MEAN_ANOMALY   = 84.7135

EPHEMERIS_TYPE = 0
CLASSIFICATION_TYPE = U
NORAD_CAT_ID   = 67635
ELEMENT_SET_NO = 999
REV_AT_EPOCH   = 297
BSTAR          = .22253E-2
MEAN_MOTION_DOT = .379458E-2
MEAN_MOTION_DDOT = 0

CCSDS_OMM_VERS = 2.0
CREATION_DATE  = 
ORIGINATOR     = 

OBJECT_NAME    = STARLINK-36624
OBJECT_ID      = 2026-020V
CENTER_NAME    = EARTH
REF_FRAME      = TEME
TIME_SYSTEM    = UTC
MEAN_ELEMENT_THEORY = SGP/SGP4

EPOCH          = 2026-02-18T06:00:02.000160
MEAN_MOTION    = 15.76368748
ECCENTRICITY   = .0001804
INCLINATION    = 42.9994
RA_OF_ASC_NODE = 259.8694
ARG_OF_PERICENTER = 283.9877
MEAN_ANOMALY   = 52.6958

EPHEMERIS_TYPE = 0
CLASSIFICATION_TYPE = U
NORAD_CAT_ID   = 67636
ELEMENT_SET_NO = 999
REV_AT_EPOCH   = 426
BSTAR          = .12554935E-3
MEAN_MOTION_DOT = .20007E-3
MEAN_MOTION_DDOT = 0

CCSDS_OMM_VERS = 2.0
CREATION_DATE  = 
ORIGINATOR     = 

OBJECT_NAME    = STARLINK-36610
OBJECT_ID      = 2026-020W
CENTER_NAME    = EARTH
REF_FRAME      = TEME
TIME_SYSTEM    = UTC
MEAN_ELEMENT_THEORY = SGP/SGP4

EPOCH          = 2026-02-17T23:01:18.017184
MEAN_MOTION    = 15.76435465
ECCENTRICITY   = .0001662
INCLINATION    = 42.9970
RA_OF_ASC_NODE = 261.9484
ARG_OF_PERICENTER = 267.0936
MEAN_ANOMALY   = 92.9744

EPHEMERIS_TYPE = 0
CLASSIFICATION_TYPE = U
NORAD_CAT_ID   = 67637
ELEMENT_SET_NO = 999
REV_AT_EPOCH   = 297
BSTAR          = .22548E-2
MEAN_MOTION_DOT = .385039E-2
MEAN_MOTION_DDOT = 0

CCSDS_OMM_VERS = 2.0
CREATION_DATE  = 
ORIGINATOR     = 

OBJECT_NAME    = STARLINK-36599
OBJECT_ID      = 2026-020X
CENTER_NAME    = EARTH
REF_FRAME      = TEME
TIME_SYSTEM    = UTC
MEAN_ELEMENT_THEORY = SGP/SGP4

EPOCH          = 2026-02-17T23:54:55.611072
MEAN_MOTION    = 15.82481964
ECCENTRICITY   = .00042624
INCLINATION    = 42.9962
RA_OF_ASC_NODE = 261.3502
ARG_OF_PERICENTER = 253.9004
MEAN_ANOMALY   = 106.1399

EPHEMERIS_TYPE = 0
CLASSIFICATION_TYPE = U
NORAD_CAT_ID   = 67638
ELEMENT_SET_NO = 999
REV_AT_EPOCH   = 298
BSTAR          = .25129197E-2
MEAN_MOTION_DOT = .577946E-2
MEAN_MOTION_DDOT = 0

CCSDS_OMM_VERS = 2.0
CREATION_DATE  = 
ORIGINATOR     = 

OBJECT_NAME    = STARLINK-36595
OBJECT_ID      = 2026-020Y
CENTER_NAME    = EARTH
REF_FRAME      = TEME
TIME_SYSTEM    = UTC
MEAN_ELEMENT_THEORY = SGP/SGP4

EPOCH          = 2026-02-18T01:24:53.456256
MEAN_MOTION    = 15.82149842
ECCENTRICITY   = .00069223
INCLINATION    = 42.9957
RA_OF_ASC_NODE = 260.9582
ARG_OF_PERICENTER = 302.3713
MEAN_ANOMALY   = 57.6488

EPHEMERIS_TYPE = 0
CLASSIFICATION_TYPE = U
NORAD_CAT_ID   = 67639
ELEMENT_SET_NO = 999
REV_AT_EPOCH   = 299
BSTAR          = .27793212E-2
MEAN_MOTION_DOT = .633868E-2
MEAN_MOTION_DDOT = 0

CCSDS_OMM_VERS = 2.0
CREATION_DATE  = 
ORIGINATOR     = 

OBJECT_NAME    = STARLINK-36570
OBJECT_ID      = 2026-020Z
CENTER_NAME    = EARTH
REF_FRAME      = TEME
TIME_SYSTEM    = UTC
MEAN_ELEMENT_THEORY = SGP/SGP4

EPOCH          = 2026-02-17T15:15:38.339424
MEAN_MOTION    = 15.76579799
ECCENTRICITY   = .0002492
INCLINATION    = 42.9967
RA_OF_ASC_NODE = 263.8200
ARG_OF_PERICENTER = 270.1840
MEAN_ANOMALY   = 89.8744

EPHEMERIS_TYPE = 0
CLASSIFICATION_TYPE = U
NORAD_CAT_ID   = 67640
ELEMENT_SET_NO = 999
REV_AT_EPOCH   = 292
BSTAR          = .26443E-2
MEAN_MOTION_DOT = .458538E-2
MEAN_MOTION_DDOT = 0

CCSDS_OMM_VERS = 2.0
CREATION_DATE  = 
ORIGINATOR     = 

OBJECT_NAME    = STARLINK-36514
OBJECT_ID      = 2026-020AA
CENTER_NAME    = EARTH
REF_FRAME      = TEME
TIME_SYSTEM    = UTC
MEAN_ELEMENT_THEORY = SGP/SGP4

EPOCH          = 2026-02-16T23:35:53.162016
MEAN_MOTION    = 15.82095372
ECCENTRICITY   = .0001841
INCLINATION    = 42.9960
RA_OF_ASC_NODE = 267.5163
ARG_OF_PERICENTER = 261.8111
MEAN_ANOMALY   = 98.2552

EPHEMERIS_TYPE = 0
CLASSIFICATION_TYPE = U
NORAD_CAT_ID   = 67641
ELEMENT_SET_NO = 999
REV_AT_EPOCH   = 282
BSTAR          = .49143275E-3
MEAN_MOTION_DOT = .104594E-2
MEAN_MOTION_DDOT = 0

CCSDS_OMM_VERS = 2.0
CREATION_DATE  = 
ORIGINATOR     = 

OBJECT_NAME    = STARLINK-36556
OBJECT_ID      = 2026-020AB
CENTER_NAME    = EARTH
REF_FRAME      = TEME
TIME_SYSTEM    = UTC
MEAN_ELEMENT_THEORY = SGP/SGP4

EPOCH          = 2026-02-18T06:00:02.000160
MEAN_MOTION    = 15.76365592
ECCENTRICITY   = .0001849
INCLINATION    = 42.9983
RA_OF_ASC_NODE = 259.9304
ARG_OF_PERICENTER = 266.3849
MEAN_ANOMALY   = 45.4400

EPHEMERIS_TYPE = 0
CLASSIFICATION_TYPE = U
NORAD_CAT_ID   = 67642
ELEMENT_SET_NO = 999
REV_AT_EPOCH   = 426
BSTAR          = .89246318E-4
MEAN_MOTION_DOT = .14069E-3
MEAN_MOTION_DDOT = 0

CCSDS_OMM_VERS = 2.0
CREATION_DATE  = 
ORIGINATOR     = 

OBJECT_NAME    = STARLINK-36533
OBJECT_ID      = 2026-020AC
CENTER_NAME    = EARTH
REF_FRAME      = TEME
TIME_SYSTEM    = UTC
MEAN_ELEMENT_THEORY = SGP/SGP4

EPOCH          = 2026-02-17T22:54:59.369184
MEAN_MOTION    = 15.76745950
ECCENTRICITY   = .0003773
INCLINATION    = 42.9964
RA_OF_ASC_NODE = 261.9120
ARG_OF_PERICENTER = 280.6242
MEAN_ANOMALY   = 79.4203

EPHEMERIS_TYPE = 0
CLASSIFICATION_TYPE = U
NORAD_CAT_ID   = 67643
ELEMENT_SET_NO = 999
REV_AT_EPOCH   = 297
BSTAR          = .26904E-2
MEAN_MOTION_DOT = .470696E-2
MEAN_MOTION_DDOT = 0

CCSDS_OMM_VERS = 2.0
CREATION_DATE  = 
ORIGINATOR     = 

OBJECT_NAME    = STARLINK-36623
OBJECT_ID      = 2026-020AD
CENTER_NAME    = EARTH
REF_FRAME      = TEME
TIME_SYSTEM    = UTC
MEAN_ELEMENT_THEORY = SGP/SGP4

EPOCH          = 2026-02-17T22:45:32.105664
MEAN_MOTION    = 15.76432828
ECCENTRICITY   = .0001705
INCLINATION    = 42.9971
RA_OF_ASC_NODE = 261.8562
ARG_OF_PERICENTER = 299.5909
MEAN_ANOMALY   = 60.4791

EPHEMERIS_TYPE = 0
CLASSIFICATION_TYPE = U
NORAD_CAT_ID   = 67644
ELEMENT_SET_NO = 999
REV_AT_EPOCH   = 297
BSTAR          = .22612E-2
MEAN_MOTION_DOT = .386134E-2
MEAN_MOTION_DDOT = 0

